OBJECT B                
1 51825U 22019B   25188.92895080  .00014804  00000+0  35515-3 0  9998
2 51825  97.3851 265.8670 0008305 310.6233  49.4290 15.41448467186269
